{
  "type": "FeatureCollection",
  "features": [
    {
      "type": "Feature",
      "properties": {
        "norad_id": 66606,
        "name": "STARLINK-36063",
        "group": "last-30-days",
        "lat": 21.41599927137148,
        "lon": 26.695043646408717,
        "alt_km": 355.4122550799575,
        "timestamp": "2025-12-06T03:35:00.474491+00:00",
        "meta_object_name": "STARLINK-36063",
        "meta_object_id": "2025-270U",
        "meta_epoch": "2025-12-05T06:00:02.000160",
        "meta_mean_motion": 15.74048689,
        "meta_eccentricity": 0.00016545,
        "meta_inclination": 42.9988,
        "meta_ra_of_asc_node": 237.0217,
        "meta_arg_of_pericenter": 277.9913,
        "meta_mean_anomaly": 173.4501,
        "meta_ephemeris_type": 0,
        "meta_classification_type": "U",
        "meta_norad_cat_id": 66606,
        "meta_element_set_no": 999,
        "meta_rev_at_epoch": 319,
        "meta_bstar": -0.014710163,
        "meta_mean_motion_dot": -0.01883986,
        "meta_mean_motion_ddot": 0,
        "tle_line1": "1 66606U 25270U   25339.25002315 -.01883986  00000+0 -14710-1 0  9998",
        "tle_line2": "2 66606  42.9988 237.0217 0001654 277.9913 173.4501 15.74048689  3198"
      },
      "geometry": {
        "type": "Point",
        "coordinates": [
          26.695043646408717,
          21.41599927137148
        ]
      }
    },
    {
      "type": "Feature",
      "properties": {
        "norad_id": 66607,
        "name": "STARLINK-35993",
        "group": "last-30-days",
        "lat": 22.591870743309272,
        "lon": 25.071624982022612,
        "alt_km": 354.8688801072349,
        "timestamp": "2025-12-06T03:35:00.474502+00:00",
        "meta_object_name": "STARLINK-35993",
        "meta_object_id": "2025-270V",
        "meta_epoch": "2025-12-05T06:00:02.000160",
        "meta_mean_motion": 15.74048388,
        "meta_eccentricity": 0.00010901,
        "meta_inclination": 42.9989,
        "meta_ra_of_asc_node": 237.0276,
        "meta_arg_of_pericenter": 274.3138,
        "meta_mean_anomaly": 175.2102,
        "meta_ephemeris_type": 0,
        "meta_classification_type": "U",
        "meta_norad_cat_id": 66607,
        "meta_element_set_no": 999,
        "meta_rev_at_epoch": 309,
        "meta_bstar": -0.014706267,
        "meta_mean_motion_dot": -0.01883036,
        "meta_mean_motion_ddot": 0,
        "tle_line1": "1 66607U 25270V   25339.25002315 -.01883036  00000+0 -14706-1 0  9990",
        "tle_line2": "2 66607  42.9989 237.0276 0001090 274.3138 175.2102 15.74048388  3091"
      },
      "geometry": {
        "type": "Point",
        "coordinates": [
          25.071624982022612,
          22.591870743309272
        ]
      }
    },
    {
      "type": "Feature",
      "properties": {
        "norad_id": 66608,
        "name": "STARLINK-36036",
        "group": "last-30-days",
        "lat": 20.22615441865286,
        "lon": 28.291955678638875,
        "alt_km": 355.38505609200274,
        "timestamp": "2025-12-06T03:35:00.474512+00:00",
        "meta_object_name": "STARLINK-36036",
        "meta_object_id": "2025-270W",
        "meta_epoch": "2025-12-05T06:00:02.000160",
        "meta_mean_motion": 15.74053208,
        "meta_eccentricity": 0.00015635,
        "meta_inclination": 42.9989,
        "meta_ra_of_asc_node": 237.0173,
        "meta_arg_of_pericenter": 272.7622,
        "meta_mean_anomaly": 180.5933,
        "meta_ephemeris_type": 0,
        "meta_classification_type": "U",
        "meta_norad_cat_id": 66608,
        "meta_element_set_no": 999,
        "meta_rev_at_epoch": 303,
        "meta_bstar": -0.014748677,
        "meta_mean_motion_dot": -0.01888498,
        "meta_mean_motion_ddot": 0,
        "tle_line1": "1 66608U 25270W   25339.25002315 -.01888498  00000+0 -14749-1 0  9995",
        "tle_line2": "2 66608  42.9989 237.0173 0001563 272.7622 180.5933 15.74053208  3035"
      },
      "geometry": {
        "type": "Point",
        "coordinates": [
          28.291955678638875,
          20.22615441865286
        ]
      }
    },
    {
      "type": "Feature",
      "properties": {
        "norad_id": 66609,
        "name": "STARLINK-36034",
        "group": "last-30-days",
        "lat": 18.993913871731944,
        "lon": 29.90075732106561,
        "alt_km": 355.54652808754327,
        "timestamp": "2025-12-06T03:35:00.474524+00:00",
        "meta_object_name": "STARLINK-36034",
        "meta_object_id": "2025-270X",
        "meta_epoch": "2025-12-05T06:00:02.000160",
        "meta_mean_motion": 15.74023879,
        "meta_eccentricity": 0.00013931,
        "meta_inclination": 42.9988,
        "meta_ra_of_asc_node": 237.0132,
        "meta_arg_of_pericenter": 279.6485,
        "meta_mean_anomaly": 175.6462,
        "meta_ephemeris_type": 0,
        "meta_classification_type": "U",
        "meta_norad_cat_id": 66609,
        "meta_element_set_no": 999,
        "meta_rev_at_epoch": 303,
        "meta_bstar": -0.014491964,
        "meta_mean_motion_dot": -0.01857741,
        "meta_mean_motion_ddot": 0,
        "tle_line1": "1 66609U 25270X   25339.25002315 -.01857741  00000+0 -14492-1 0  9998",
        "tle_line2": "2 66609  42.9988 237.0132 0001393 279.6485 175.6462 15.74023879  3037"
      },
      "geometry": {
        "type": "Point",
        "coordinates": [
          29.90075732106561,
          18.993913871731944
        ]
      }
    },
    {
      "type": "Feature",
      "properties": {
        "norad_id": 66610,
        "name": "STARLINK-35680",
        "group": "last-30-days",
        "lat": 17.789741074358066,
        "lon": 31.43240537773527,
        "alt_km": 355.506816257589,
        "timestamp": "2025-12-06T03:35:00.474534+00:00",
        "meta_object_name": "STARLINK-35680",
        "meta_object_id": "2025-270Y",
        "meta_epoch": "2025-12-05T06:00:02.000160",
        "meta_mean_motion": 15.74048601,
        "meta_eccentricity": 0.00012321,
        "meta_inclination": 42.9987,
        "meta_ra_of_asc_node": 237.0084,
        "meta_arg_of_pericenter": 272.3525,
        "meta_mean_anomaly": 184.8397,
        "meta_ephemeris_type": 0,
        "meta_classification_type": "U",
        "meta_norad_cat_id": 66610,
        "meta_element_set_no": 999,
        "meta_rev_at_epoch": 330,
        "meta_bstar": -0.014699907,
        "meta_mean_motion_dot": -0.01882468,
        "meta_mean_motion_ddot": 0,
        "tle_line1": "1 66610U 25270Y   25339.25002315 -.01882468  00000+0 -14700-1 0  9996",
        "tle_line2": "2 66610  42.9987 237.0084 0001232 272.3525 184.8397 15.74048601  3300"
      },
      "geometry": {
        "type": "Point",
        "coordinates": [
          31.43240537773527,
          17.789741074358066
        ]
      }
    },
    {
      "type": "Feature",
      "properties": {
        "norad_id": 66611,
        "name": "STARLINK-35583",
        "group": "last-30-days",
        "lat": 16.56208672240047,
        "lon": 32.95769469002423,
        "alt_km": 356.03534169832164,
        "timestamp": "2025-12-06T03:35:00.474547+00:00",
        "meta_object_name": "STARLINK-35583",
        "meta_object_id": "2025-270Z",
        "meta_epoch": "2025-12-05T06:00:02.000160",
        "meta_mean_motion": 15.74051648,
        "meta_eccentricity": 0.00014753,
        "meta_inclination": 42.9988,
        "meta_ra_of_asc_node": 237.0034,
        "meta_arg_of_pericenter": 280.8157,
        "meta_mean_anomaly": 178.2946,
        "meta_ephemeris_type": 0,
        "meta_classification_type": "U",
        "meta_norad_cat_id": 66611,
        "meta_element_set_no": 999,
        "meta_rev_at_epoch": 330,
        "meta_bstar": -0.014751424,
        "meta_mean_motion_dot": -0.01888612,
        "meta_mean_motion_ddot": 0,
        "tle_line1": "1 66611U 25270Z   25339.25002315 -.01888612  00000+0 -14751-1 0  9990",
        "tle_line2": "2 66611  42.9988 237.0034 0001475 280.8157 178.2946 15.74051648  3303"
      },
      "geometry": {
        "type": "Point",
        "coordinates": [
          32.95769469002423,
          16.56208672240047
        ]
      }
    },
    {
      "type": "Feature",
      "properties": {
        "norad_id": 66612,
        "name": "STARLINK-36039",
        "group": "last-30-days",
        "lat": 15.315849202702978,
        "lon": 34.472417322333364,
        "alt_km": 356.1056532050761,
        "timestamp": "2025-12-06T03:35:00.474557+00:00",
        "meta_object_name": "STARLINK-36039",
        "meta_object_id": "2025-270AA",
        "meta_epoch": "2025-12-05T06:00:02.000160",
        "meta_mean_motion": 15.74049735,
        "meta_eccentricity": 0.00015065,
        "meta_inclination": 42.9988,
        "meta_ra_of_asc_node": 236.9983,
        "meta_arg_of_pericenter": 277.7785,
        "meta_mean_anomaly": 183.2493,
        "meta_ephemeris_type": 0,
        "meta_classification_type": "U",
        "meta_norad_cat_id": 66612,
        "meta_element_set_no": 999,
        "meta_rev_at_epoch": 319,
        "meta_bstar": -0.014725639,
        "meta_mean_motion_dot": -0.01885644,
        "meta_mean_motion_ddot": 0,
        "tle_line1": "1 66612U 25270AA  25339.25002315 -.01885644  00000+0 -14726-1 0  9995",
        "tle_line2": "2 66612  42.9988 236.9983 0001506 277.7785 183.2493 15.74049735  3196"
      },
      "geometry": {
        "type": "Point",
        "coordinates": [
          34.472417322333364,
          15.315849202702978
        ]
      }
    }
  ]
}